IRIDIUM 138             
1 43071U 17083B   26169.78161045  .00000083  00000+0  22615-4 0  9990
2 43071  86.3980 321.0442 0002311  87.0487 273.0973 14.34217837444360
IRIDIUM 116             
1 43072U 17083C   26169.81966597 -.00000010  00000+0 -10517-4 0  9990
2 43072  86.3960 321.3187 0001898 100.0469 260.0940 14.34217458444407
IRIDIUM 130             
1 43073U 17083D   26169.78794905  .00000152  00000+0  47365-4 0  9995
2 43073  86.3974 321.6072 0001949  93.1410 267.0008 14.34219322444341
IRIDIUM 151             
1 43074U 17083E   26169.69281516 -.00000008  00000+0 -99528-5 0  9996
2 43074  86.3962 321.4296 0002053  93.4528 266.6903 14.34217278444353
IRIDIUM 134             
1 43075U 17083F   26169.66110228 -.00000050  00000+0 -24927-4 0  9992
2 43075  86.3963 321.4509 0002004  91.9399 268.2026 14.34216953444316
IRIDIUM 137             
1 43076U 17083G   26169.39471250  .00000010  00000+0 -35009-5 0  9997
2 43076  86.3965 321.6551 0002199 104.2721 255.8719 14.34217627444343
IRIDIUM 141             
1 43077U 17083H   26169.38836970  .00000021  00000+0  52348-6 0  9998
2 43077  86.3964 321.4880 0002229  90.9844 269.1607 14.34217760444349
IRIDIUM 153             
1 43078U 17083J   26169.75916029  .00000038  00000+0  64022-5 0  9993
2 43078  86.3962 289.8134 0002234  89.7662 270.3790 14.34217690445505
IRIDIUM 131             
1 43079U 17083K   26169.65475782  .00000137  00000+0  42029-4 0  9991
2 43079  86.3970 321.5627 0002215  91.9978 268.1472 14.34217601444312
IRIDIUM 144             
1 43249U 18030A   26169.76550245  .00000163  00000+0  51201-4 0  9994
2 43249  86.3961 289.7397 0002116  97.4966 262.6470 14.34217439430364
IRIDIUM 149             
1 43250U 18030B   26169.77184558  .00000065  00000+0  16264-4 0  9998
2 43250  86.3959 289.7042 0002267  93.7824 266.3631 14.34217778430387
IRIDIUM 157             
1 43251U 18030C   26169.79087350 -.00000005  00000+0 -88970-5 0  9993
2 43251  86.3957 289.7497 0002099  94.4569 265.6867 14.34217332430364
IRIDIUM 140             
1 43252U 18030D   26169.74013275  .00000031  00000+0  38760-5 0  9993
2 43252  86.3959 289.7832 0002141  94.0293 266.1148 14.34217499430416
IRIDIUM 145             
1 43253U 18030E   26169.72744729  .00000034  00000+0  50743-5 0  9995
2 43253  86.3960 289.7607 0002032 101.7441 258.3982 14.34217457430344
IRIDIUM 146             
1 43254U 18030F   26169.70841587  .00000156  00000+0  48463-4 0  9994
2 43254  86.3960 289.7809 0002137  97.0236 263.1203 14.34219252430350
IRIDIUM 148             
1 43255U 18030G   26169.74647538  .00000005  00000+0 -52169-5 0  9992
2 43255  86.3957 289.8084 0002159  96.5837 263.5605 14.34217477430399
IRIDIUM 142             
1 43256U 18030H   26169.85429941  .00000005  00000+0 -51980-5 0  9991
2 43256  86.3954 289.6521 0002037  99.4347 260.7079 14.34217281430379
IRIDIUM 150             
1 43257U 18030J   26169.26443779  .00000049  00000+0  10474-4 0  9991
2 43257  86.3960 290.0151 0002154  93.8168 266.3274 14.34217786430314
IRIDIUM 143             
1 43258U 18030K   26169.73379009  .00000052  00000+0  11473-4 0  9992
2 43258  86.3964 289.9114 0002107  96.7508 263.3928 14.34217493430311
IRIDIUM 161             
1 43478U 18047C   26169.76360527  .00000276  00000+0  75928-4 0  9995
2 43478  86.4481  87.8120 0002576  83.9353 276.2141 14.43279239425363
IRIDIUM 152             
1 43479U 18047D   26169.77627713  .00000310  00000+0  10362-3 0  9999
2 43479  86.3957  87.6680 0002329  82.9098 277.2362 14.34218056422713
IRIDIUM 147             
1 43480U 18047E   26169.78261940  .00000035  00000+0  53208-5 0  9990
2 43480  86.3959  87.6705 0002162  86.3528 273.7915 14.34217580422712
IRIDIUM 110             
1 43481U 18047F   26169.78896255  .00000163  00000+0  50970-4 0  9998
2 43481  86.3960  87.7598 0002559  81.5366 278.6120 14.34217970422707
IRIDIUM 162             
1 43482U 18047G   26169.75730873  .00000272  00000+0  74914-4 0  9994
2 43482  86.4481  87.7059 0002260  82.4537 277.6921 14.43282472425359
IRIDIUM 160             
1 43569U 18061A   26169.73479728 -.00000005  00000+0 -89667-5 0  9991
2 43569  86.3959  56.1503 0002155  85.5500 274.5942 14.34217498413593
IRIDIUM 166             
1 43570U 18061B   26169.76016751  .00000004  00000+0 -56961-5 0  9998
2 43570  86.3958  56.0901 0002000  86.6088 273.5337 14.34217516413629
IRIDIUM 158             
1 43571U 18061C   26169.72845442  .00000003  00000+0 -61552-5 0  9993
2 43571  86.3959  56.1133 0002091  82.6608 277.4826 14.34217365413586
IRIDIUM 165             
1 43572U 18061D   26169.75382488  .00000049  00000+0  10364-4 0  9996
2 43572  86.3961  56.1493 0002071  87.2434 272.8999 14.34217395413612
IRIDIUM 155             
1 43573U 18061E   26169.78553766  .00000046  00000+0  94692-5 0  9993
2 43573  86.3957  56.0050 0002110  83.2600 276.8836 14.34217860413588
IRIDIUM 154             
1 43574U 18061F   26169.76650866  .00000267  00000+0  88353-4 0  9992
2 43574  86.3960  56.1465 0002156  88.5706 271.5737 14.34217428413637
IRIDIUM 163             
1 43575U 18061G   26169.74748065  .00000048  00000+0  10060-4 0  9997
2 43575  86.3958  56.0698 0002236  83.2206 276.9244 14.34216575413609
